$$SOE
2461302.500000000, A.D. 2026-Sep-19 00:00:00.0000, 2.526121549221599E+08, -1.464350126741713E+08, 4.193245169523734E+07,
2461309.500000000, A.D. 2026-Sep-26 00:00:00.0000, 2.576955185991022E+08, -1.357593006637425E+08, 3.723016094444348E+07,
2461316.500000000, A.D. 2026-Oct-03 00:00:00.0000, 2.622848370172094E+08, -1.248233915943682E+08, 3.245651440900265E+07,
2461323.500000000, A.D. 2026-Oct-10 00:00:00.0000, 2.663642708380240E+08, -1.136449042550825E+08, 2.761979360517940E+07,
2461330.500000000, A.D. 2026-Oct-17 00:00:00.0000, 2.699185369936761E+08, -1.022424364342173E+08, 2.272863959269268E+07,
2461337.500000000, A.D. 2026-Oct-24 00:00:00.0000, 2.729329790128700E+08, -9.063557593260121E+07, 1.779205251952637E+07,
2461344.500000000, A.D. 2026-Oct-31 00:00:00.0000, 2.753936419229171E+08, -7.884490792377530E+07, 1.281938928785993E+07,
2461351.500000000, A.D. 2026-Nov-07 00:00:00.0000, 2.772873519559060E+08, -6.689201799102652E+07, 7.820359071300212E+06,
2461358.500000000, A.D. 2026-Nov-14 00:00:00.0000, 2.786018010757694E+08, -5.479948930713601E+07, 2.805016485366352E+06,
2461365.500000000, A.D. 2026-Nov-21 00:00:00.0000, 2.793256342665495E+08, -4.259089260250076E+07, -2.216247619488692E+06,
2461372.500000000, A.D. 2026-Nov-28 00:00:00.0000, 2.794485382397730E+08, -3.029077124906097E+07, -7.232718153432682E+06,
2461379.500000000, A.D. 2026-Dec-05 00:00:00.0000, 2.789613347157487E+08, -1.792462141648237E+07, -1.223337121349123E+07,
2461386.500000000, A.D. 2026-Dec-12 00:00:00.0000, 2.778560778697834E+08, -5.518863481945774E+06, -1.720689294722688E+07,
2461393.500000000, A.D. 2026-Dec-19 00:00:00.0000, 2.761261533693506E+08, 6.899196003871186E+06, -2.214170191091755E+07,
2461400.500000000, A.D. 2026-Dec-26 00:00:00.0000, 2.737663780457522E+08, 1.930141158551683E+07, -2.702597519042080E+07,
2461407.500000000, A.D. 2027-Jan-02 00:00:00.0000, 2.707730995281422E+08, 3.165885582627597E+07, -3.184767850767667E+07,
2461414.500000000, A.D. 2027-Jan-09 00:00:00.0000, 2.671442948739920E+08, 4.394188644974226E+07, -3.659460046695408E+07,
2461421.500000000, A.D. 2027-Jan-16 00:00:00.0000, 2.628796670160099E+08, 5.612022416127416E+07, -4.125439104229455E+07,
2461428.500000000, A.D. 2027-Jan-23 00:00:00.0000, 2.579807377310266E+08, 6.816304144898997E+07, -4.581460435747644E+07,
2461435.500000000, A.D. 2027-Jan-30 00:00:00.0000, 2.524509358655147E+08, 8.003906251517534E+07, -5.026274576012369E+07,
2461442.500000000, A.D. 2027-Feb-06 00:00:00.0000, 2.462956796854702E+08, 9.171667470386729E+07, -5.458632310763945E+07,
2461449.500000000, A.D. 2027-Feb-13 00:00:00.0000, 2.395224512358074E+08, 1.031640524827000E+08, -5.877290193967081E+07,
2461456.500000000, A.D. 2027-Feb-20 00:00:00.0000, 2.321408586555582E+08, 1.143492928390902E+08, -6.281016411396706E+07,
2461463.500000000, A.D. 2027-Feb-27 00:00:00.0000, 2.241626861656387E+08, 1.252405582839191E+08, -6.668596994268509E+07,
2461470.500000000, A.D. 2027-Mar-06 00:00:00.0000, 2.156019330619908E+08, 1.358062285274354E+08, -7.038842348877664E+07,
2461477.500000000, A.D. 2027-Mar-13 00:00:00.0000, 2.064748384827881E+08, 1.460150617751391E+08, -7.390594014285715E+07,
2461484.500000000, A.D. 2027-Mar-20 00:00:00.0000, 1.967998893109582E+08, 1.558363634537774E+08, -7.722731578563102E+07,
2461491.500000000, A.D. 2027-Mar-27 00:00:00.0000, 1.865978100687092E+08, 1.652401602084346E+08, -8.034179684935535E+07,
2461498.500000000, A.D. 2027-Apr-03 00:00:00.0000, 1.758915338724856E+08, 1.741973772731940E+08, -8.323915046843313E+07,
2461505.500000000, A.D. 2027-Apr-10 00:00:00.0000, 1.647061536353556E+08, 1.826800171736812E+08, -8.590973382098345E+07,
2461512.500000000, A.D. 2027-Apr-17 00:00:00.0000, 1.530688529709312E+08, 1.906613375014311E+08, -8.834456171018787E+07,
2461519.500000000, A.D. 2027-Apr-24 00:00:00.0000, 1.410088166562933E+08, 1.981160253149298E+08, -9.053537141147286E+07,
2461526.500000000, A.D. 2027-May-01 00:00:00.0000, 1.285571211107777E+08, 2.050203657284080E+08, -9.247468381767805E+07,
2461533.500000000, A.D. 2027-May-08 00:00:00.0000, 1.157466057607975E+08, 2.113524029424507E+08, -9.415585987735459E+07,
2461540.500000000, A.D. 2027-May-15 00:00:00.0000, 1.026117247668451E+08, 2.170920921946755E+08, -9.557315117297915E+07,
2461547.500000000, A.D. 2027-May-22 00:00:00.0000, 8.918837890350987E+07, 2.222214376706164E+08, -9.672174382545000E+07,
2461554.500000000, A.D. 2027-May-29 00:00:00.0000, 7.551373270193599E+07, 2.267246127415013E+08, -9.759779539656383E+07,
2461561.500000000, A.D. 2027-Jun-05 00:00:00.0000, 6.162601986862642E+07, 2.305880637075029E+08, -9.819846397938196E+07,
2461568.500000000, A.D. 2027-Jun-12 00:00:00.0000, 4.756433739395316E+07, 2.338005958049921E+08, -9.852192874408047E+07,
2461575.500000000, A.D. 2027-Jun-19 00:00:00.0000, 3.336843068708946E+07, 2.363534392215481E+08, -9.856740163413528E+07,
2461582.500000000, A.D. 2027-Jun-26 00:00:00.0000, 1.907847287261217E+07, 2.382402939201080E+08, -9.833513008175132E+07,
2461589.500000000, A.D. 2027-Jul-03 00:00:00.0000, 4.734841350112673E+06, 2.394573527497049E+08, -9.782639074948250E+07,
2461596.500000000, A.D. 2027-Jul-10 00:00:00.0000, -9.622105341783416E+06, 2.400033027382845E+08, -9.704347446484031E+07,
2461603.500000000, A.D. 2027-Jul-17 00:00:00.0000, -2.395224736202615E+07, 2.398793048294686E+08, -9.598966267572874E+07,
2461610.500000000, A.D. 2027-Jul-24 00:00:00.0000, -3.821591711890440E+07, 2.390889526983520E+08, -9.466919591216332E+07,
2461617.500000000, A.D. 2027-Jul-31 00:00:00.0000, -5.237410350404963E+07, 2.376382119507987E+08, -9.308723487663816E+07,
2461624.500000000, A.D. 2027-Aug-07 00:00:00.0000, -6.638864465364859E+07, 2.355353422662662E+08, -9.124981478991643E+07,
2461631.500000000, A.D. 2027-Aug-14 00:00:00.0000, -8.022240947264908E+07, 2.327908039323460E+08, -8.916379365662777E+07,
2461638.500000000, A.D. 2027-Aug-21 00:00:00.0000, -9.383946555484490E+07, 2.294171473203933E+08, -8.683679569251786E+07,
2461645.500000000, A.D. 2027-Aug-28 00:00:00.0000, -1.072052286989548E+08, 2.254288885801537E+08, -8.427715107560617E+07,
2461652.500000000, A.D. 2027-Sep-04 00:00:00.0000, -1.202865942015595E+08, 2.208423762578990E+08, -8.149383268663700E+07,
2461659.500000000, A.D. 2027-Sep-11 00:00:00.0000, -1.330520506772730E+08, 2.156756504121028E+08, -7.849639071666020E+07,
2461666.500000000, A.D. 2027-Sep-18 00:00:00.0000, -1.454717759965034E+08, 2.099482957876761E+08, -7.529488611847898E+07,
2461673.500000000, A.D. 2027-Sep-25 00:00:00.0000, -1.575177151775556E+08, 2.036812911203827E+08, -7.189982379552996E+07,
2461680.500000000, A.D. 2027-Oct-02 00:00:00.0000, -1.691636405284110E+08, 1.968968566425204E+08, -6.832208633719817E+07,
2461687.500000000, A.D. 2027-Oct-09 00:00:00.0000, -1.803851946526886E+08, 1.896183016853310E+08, -6.457286903129097E+07,
2461694.500000000, A.D. 2027-Oct-16 00:00:00.0000, -1.911599171192736E+08, 1.818698740507707E+08, -6.066361680658552E+07,
2461701.500000000, A.D. 2027-Oct-23 00:00:00.0000, -2.014672555813647E+08, 1.736766126813824E+08, -5.660596368097412E+07,
2461708.500000000, A.D. 2027-Oct-30 00:00:00.0000, -2.112885621566106E+08, 1.650642055667880E+08, -5.241167515730362E+07,
2461715.500000000, A.D. 2027-Nov-06 00:00:00.0000, -2.206070775215430E+08, 1.560588551324945E+08, -4.809259373456492E+07,
2461722.500000000, A.D. 2027-Nov-13 00:00:00.0000, -2.294079060628894E+08, 1.466871499511029E+08, -4.366058780358049E+07,
2461729.500000000, A.D. 2027-Nov-20 00:00:00.0000, -2.376779805538065E+08, 1.369759413100182E+08, -3.912750456439030E+07,
2461736.500000000, A.D. 2027-Nov-27 00:00:00.0000, -2.454060160906070E+08, 1.269522281080339E+08, -3.450512697634111E+07,
2461743.500000000, A.D. 2027-Dec-04 00:00:00.0000, -2.525824566607661E+08, 1.166430513241051E+08, -2.980513452715855E+07,
2461750.500000000, A.D. 2027-Dec-11 00:00:00.0000, -2.591994161911348E+08, 1.060753972848330E+08, -2.503906784010675E+07,
2461757.500000000, A.D. 2027-Dec-18 00:00:00.0000, -2.652506150165829E+08, 9.527610943852137E+07, -2.021829710325987E+07,
2461764.500000000, A.D. 2027-Dec-25 00:00:00.0000, -2.707313127485843E+08, 8.427180855092657E+07, -1.535399422030316E+07,
2461771.500000000, A.D. 2028-Jan-01 00:00:00.0000, -2.756382385448912E+08, 7.308882114992367E+07, -1.045710853608518E+07,
$$EOE